[{"OBJECT_NAME":"ONEWEB-0394","OBJECT_ID":"2021-132F","EPOCH":"2025-08-24T11:55:05.732832","MEAN_MOTION":13.18685966,"ECCENTRICITY":0.00019531,"INCLINATION":87.9153,"RA_OF_ASC_NODE":34.3582,"ARG_OF_PERICENTER":95.814,"MEAN_ANOMALY":264.3215,"EPHEMERIS_TYPE":0,"CLASSIFICATION_TYPE":"U","NORAD_CAT_ID":50474,"ELEMENT_SET_NO":999,"REV_AT_EPOCH":18249,"BSTAR":5.2549198e-5,"MEAN_MOTION_DOT":3.4e-7,"MEAN_MOTION_DDOT":0},{"OBJECT_NAME":"ONEWEB-0395","OBJECT_ID":"2021-132G","EPOCH":"2025-08-24T14:26:08.562336","MEAN_MOTION":13.11418324,"ECCENTRICITY":0.00016894,"INCLINATION":87.8774,"RA_OF_ASC_NODE":80.1839,"ARG_OF_PERICENTER":96.0097,"MEAN_ANOMALY":264.1223,"EPHEMERIS_TYPE":0,"CLASSIFICATION_TYPE":"U","NORAD_CAT_ID":50475,"ELEMENT_SET_NO":999,"REV_AT_EPOCH":17684,"BSTAR":-0.0012405966,"MEAN_MOTION_DOT":-4.27e-6,"MEAN_MOTION_DDOT":0},{"OBJECT_NAME":"ONEWEB-0396","OBJECT_ID":"2021-132H","EPOCH":"2025-08-24T11:45:35.764992","MEAN_MOTION":13.18685898,"ECCENTRICITY":0.00019069,"INCLINATION":87.9152,"RA_OF_ASC_NODE":34.3716,"ARG_OF_PERICENTER":95.5866,"MEAN_ANOMALY":264.5484,"EPHEMERIS_TYPE":0,"CLASSIFICATION_TYPE":"U","NORAD_CAT_ID":50476,"ELEMENT_SET_NO":999,"REV_AT_EPOCH":18253,"BSTAR":-7.8363509e-5,"MEAN_MOTION_DOT":-1.8e-7,"MEAN_MOTION_DDOT":0},{"OBJECT_NAME":"ONEWEB-0397","OBJECT_ID":"2021-132J","EPOCH":"2025-08-24T12:06:57.084768","MEAN_MOTION":13.18687113,"ECCENTRICITY":0.00019664,"INCLINATION":87.9153,"RA_OF_ASC_NODE":34.3698,"ARG_OF_PERICENTER":91.5338,"MEAN_ANOMALY":268.602,"EPHEMERIS_TYPE":0,"CLASSIFICATION_TYPE":"U","NORAD_CAT_ID":50477,"ELEMENT_SET_NO":999,"REV_AT_EPOCH":18251,"BSTAR":-0.0001114029,"MEAN_MOTION_DOT":-3.1e-7,"MEAN_MOTION_DDOT":0},{"OBJECT_NAME":"ONEWEB-0398","OBJECT_ID":"2021-132K","EPOCH":"2025-08-24T13:39:46.276704","MEAN_MOTION":13.11414752,"ECCENTRICITY":0.00013331,"INCLINATION":87.8781,"RA_OF_ASC_NODE":80.1541,"ARG_OF_PERICENTER":93.3211,"MEAN_ANOMALY":266.8069,"EPHEMERIS_TYPE":0,"CLASSIFICATION_TYPE":"U","NORAD_CAT_ID":50478,"ELEMENT_SET_NO":999,"REV_AT_EPOCH":17673,"BSTAR":0.00083912547,"MEAN_MOTION_DOT":3.1e-6,"MEAN_MOTION_DDOT":0},{"OBJECT_NAME":"ONEWEB-0399","OBJECT_ID":"2021-132L","EPOCH":"2025-08-24T13:20:12.872256","MEAN_MOTION":13.1141838,"ECCENTRICITY":0.00021403,"INCLINATION":87.8798,"RA_OF_ASC_NODE":80.182,"ARG_OF_PERICENTER":88.8866,"MEAN_ANOMALY":271.2507,"EPHEMERIS_TYPE":0,"CLASSIFICATION_TYPE":"U","NORAD_CAT_ID":50479,"ELEMENT_SET_NO":999,"REV_AT_EPOCH":17672,"BSTAR":0.00071739865,"MEAN_MOTION_DOT":2.67e-6,"MEAN_MOTION_DDOT":0},{"OBJECT_NAME":"ONEWEB-0400","OBJECT_ID":"2021-132M","EPOCH":"2025-08-24T11:36:03.936960","MEAN_MOTION":13.18687592,"ECCENTRICITY":0.0001592,"INCLINATION":87.9154,"RA_OF_ASC_NODE":34.3643,"ARG_OF_PERICENTER":97.5994,"MEAN_ANOMALY":262.5319,"EPHEMERIS_TYPE":0,"CLASSIFICATION_TYPE":"U","NORAD_CAT_ID":50480,"ELEMENT_SET_NO":999,"REV_AT_EPOCH":18250,"BSTAR":1.2701914e-5,"MEAN_MOTION_DOT":1.8e-7,"MEAN_MOTION_DDOT":0},{"OBJECT_NAME":"ONEWEB-0401","OBJECT_ID":"2021-132N","EPOCH":"2025-08-24T10:50:58.212096","MEAN_MOTION":13.18685701,"ECCENTRICITY":0.00019224,"INCLINATION":87.9154,"RA_OF_ASC_NODE":34.3665,"ARG_OF_PERICENTER":88.5277,"MEAN_ANOMALY":271.6075,"EPHEMERIS_TYPE":0,"CLASSIFICATION_TYPE":"U","NORAD_CAT_ID":50481,"ELEMENT_SET_NO":999,"REV_AT_EPOCH":18250,"BSTAR":0.00027588954,"MEAN_MOTION_DOT":1.22e-6,"MEAN_MOTION_DDOT":0},{"OBJECT_NAME":"ONEWEB-0402","OBJECT_ID":"2021-132P","EPOCH":"2025-08-24T11:47:56.863104","MEAN_MOTION":13.18683215,"ECCENTRICITY":0.0002121,"INCLINATION":87.9153,"RA_OF_ASC_NODE":34.3523,"ARG_OF_PERICENTER":77.9143,"MEAN_ANOMALY":282.2226,"EPHEMERIS_TYPE":0,"CLASSIFICATION_TYPE":"U","NORAD_CAT_ID":50482,"ELEMENT_SET_NO":999,"REV_AT_EPOCH":18253,"BSTAR":-6.9729931e-5,"MEAN_MOTION_DOT":-1.5e-7,"MEAN_MOTION_DDOT":0},{"OBJECT_NAME":"ONEWEB-0403","OBJECT_ID":"2021-132Q","EPOCH":"2025-08-24T10:34:19.587936","MEAN_MOTION":13.18688456,"ECCENTRICITY":0.0001851,"INCLINATION":87.9155,"RA_OF_ASC_NODE":34.3808,"ARG_OF_PERICENTER":97.8748,"MEAN_ANOMALY":262.2594,"EPHEMERIS_TYPE":0,"CLASSIFICATION_TYPE":"U","NORAD_CAT_ID":50483,"ELEMENT_SET_NO":999,"REV_AT_EPOCH":18248,"BSTAR":0.00011380054,"MEAN_MOTION_DOT":5.8e-7,"MEAN_MOTION_DDOT":0},{"OBJECT_NAME":"ONEWEB-0404","OBJECT_ID":"2021-132R","EPOCH":"2025-08-24T14:43:14.304000","MEAN_MOTION":13.1141802,"ECCENTRICITY":0.00019584,"INCLINATION":87.8781,"RA_OF_ASC_NODE":80.1742,"ARG_OF_PERICENTER":95.4033,"MEAN_ANOMALY":264.7319,"EPHEMERIS_TYPE":0,"CLASSIFICATION_TYPE":"U","NORAD_CAT_ID":50484,"ELEMENT_SET_NO":999,"REV_AT_EPOCH":17682,"BSTAR":-0.00011581476,"MEAN_MOTION_DOT":-2.8e-7,"MEAN_MOTION_DDOT":0},{"OBJECT_NAME":"ONEWEB-0405","OBJECT_ID":"2021-132S","EPOCH":"2025-08-24T10:55:41.572128","MEAN_MOTION":13.18686619,"ECCENTRICITY":0.00020466,"INCLINATION":87.9152,"RA_OF_ASC_NODE":34.364,"ARG_OF_PERICENTER":88.9333,"MEAN_ANOMALY":271.2034,"EPHEMERIS_TYPE":0,"CLASSIFICATION_TYPE":"U","NORAD_CAT_ID":50485,"ELEMENT_SET_NO":999,"REV_AT_EPOCH":18288,"BSTAR":0.00011224926,"MEAN_MOTION_DOT":5.7e-7,"MEAN_MOTION_DDOT":0},{"OBJECT_NAME":"ONEWEB-0406","OBJECT_ID":"2021-132T","EPOCH":"2025-08-24T10:41:27.275712","MEAN_MOTION":13.18687421,"ECCENTRICITY":0.00018303,"INCLINATION":87.9154,"RA_OF_ASC_NODE":34.3891,"ARG_OF_PERICENTER":111.905,"MEAN_ANOMALY":248.2277,"EPHEMERIS_TYPE":0,"CLASSIFICATION_TYPE":"U","NORAD_CAT_ID":50486,"ELEMENT_SET_NO":999,"REV_AT_EPOCH":18251,"BSTAR":0.00012334551,"MEAN_MOTION_DOT":6.2e-7,"MEAN_MOTION_DDOT":0},{"OBJECT_NAME":"ONEWEB-0407","OBJECT_ID":"2021-132U","EPOCH":"2025-08-24T10:31:57.835776","MEAN_MOTION":13.18685786,"ECCENTRICITY":0.00019298,"INCLINATION":87.9152,"RA_OF_ASC_NODE":34.3754,"ARG_OF_PERICENTER":92.7145,"MEAN_ANOMALY":267.4208,"EPHEMERIS_TYPE":0,"CLASSIFICATION_TYPE":"U","NORAD_CAT_ID":50487,"ELEMENT_SET_NO":999,"REV_AT_EPOCH":18245,"BSTAR":0.00012567371,"MEAN_MOTION_DOT":6.2e-7,"MEAN_MOTION_DDOT":0},{"OBJECT_NAME":"ONEWEB-0409","OBJECT_ID":"2021-132V","EPOCH":"2025-08-24T14:40:47.739360","MEAN_MOTION":13.11420108,"ECCENTRICITY":0.00017491,"INCLINATION":87.8781,"RA_OF_ASC_NODE":80.1336,"ARG_OF_PERICENTER":95.5525,"MEAN_ANOMALY":264.5802,"EPHEMERIS_TYPE":0,"CLASSIFICATION_TYPE":"U","NORAD_CAT_ID":50488,"ELEMENT_SET_NO":999,"REV_AT_EPOCH":17671,"BSTAR":-0.0010741646,"MEAN_MOTION_DOT":-3.68e-6,"MEAN_MOTION_DDOT":0},{"OBJECT_NAME":"ONEWEB-0412","OBJECT_ID":"2021-132W","EPOCH":"2025-08-24T12:04:36.394464","MEAN_MOTION":13.18685391,"ECCENTRICITY":0.00020207,"INCLINATION":87.9151,"RA_OF_ASC_NODE":34.3756,"ARG_OF_PERICENTER":85.8807,"MEAN_ANOMALY":274.2556,"EPHEMERIS_TYPE":0,"CLASSIFICATION_TYPE":"U","NORAD_CAT_ID":50489,"ELEMENT_SET_NO":999,"REV_AT_EPOCH":18255,"BSTAR":-0.00023671039,"MEAN_MOTION_DOT":-8.0e-7,"MEAN_MOTION_DDOT":0},{"OBJECT_NAME":"ONEWEB-0413","OBJECT_ID":"2021-132X","EPOCH":"2025-08-24T12:11:43.644192","MEAN_MOTION":13.18684462,"ECCENTRICITY":0.0001892,"INCLINATION":87.9155,"RA_OF_ASC_NODE":34.3905,"ARG_OF_PERICENTER":83.126,"MEAN_ANOMALY":277.0087,"EPHEMERIS_TYPE":0,"CLASSIFICATION_TYPE":"U","NORAD_CAT_ID":50490,"ELEMENT_SET_NO":999,"REV_AT_EPOCH":18249,"BSTAR":-5.9786649e-5,"MEAN_MOTION_DOT":-1.1e-7,"MEAN_MOTION_DDOT":0}]
