ONEWEB-0394             
1 50474U 21132F   25236.49659413  .00000034  00000+0  52549-4 0  9993
2 50474  87.9153  34.3582 0001953  95.8140 264.3215 13.18685966182495
ONEWEB-0395             
1 50475U 21132G   25236.60148799 -.00000427  00000+0 -12406-2 0  9991
2 50475  87.8774  80.1839 0001689  96.0097 264.1223 13.11418324176842
ONEWEB-0396             
1 50476U 21132H   25236.48999728 -.00000018  00000+0 -78364-4 0  9997
2 50476  87.9152  34.3716 0001906  95.5866 264.5484 13.18685898182534
ONEWEB-0397             
1 50477U 21132J   25236.50482737 -.00000031  00000+0 -11140-3 0  9991
2 50477  87.9153  34.3698 0001966  91.5338 268.6020 13.18687113182512
ONEWEB-0398             
1 50478U 21132K   25236.56928561  .00000310  00000+0  83913-3 0  9993
2 50478  87.8781  80.1541 0001333  93.3211 266.8069 13.11414752176733
ONEWEB-0399             
1 50479U 21132L   25236.55570454  .00000267  00000+0  71740-3 0  9993
2 50479  87.8798  80.1820 0002140  88.8866 271.2507 13.11418380176721
ONEWEB-0400             
1 50480U 21132M   25236.48337890  .00000018  00000+0  12702-4 0  9990
2 50480  87.9154  34.3643 0001592  97.5994 262.5319 13.18687592182500
ONEWEB-0401             
1 50481U 21132N   25236.45206264  .00000122  00000+0  27589-3 0  9992
2 50481  87.9154  34.3665 0001922  88.5277 271.6075 13.18685701182506
ONEWEB-0402             
1 50482U 21132P   25236.49163036 -.00000015  00000+0 -69730-4 0  9994
2 50482  87.9153  34.3523 0002121  77.9143 282.2226 13.18683215182532
ONEWEB-0403             
1 50483U 21132Q   25236.44050449  .00000058  00000+0  11380-3 0  9995
2 50483  87.9155  34.3808 0001851  97.8748 262.2594 13.18688456182484
ONEWEB-0404             
1 50484U 21132R   25236.61336000 -.00000028  00000+0 -11581-3 0  9997
2 50484  87.8781  80.1742 0001958  95.4033 264.7319 13.11418020176828
ONEWEB-0405             
1 50485U 21132S   25236.45534227  .00000057  00000+0  11225-3 0  9996
2 50485  87.9152  34.3640 0002046  88.9333 271.2034 13.18686619182887
ONEWEB-0406             
1 50486U 21132T   25236.44545458  .00000062  00000+0  12335-3 0  9993
2 50486  87.9154  34.3891 0001830 111.9050 248.2277 13.18687421182516
ONEWEB-0407             
1 50487U 21132U   25236.43886384  .00000062  00000+0  12567-3 0  9996
2 50487  87.9152  34.3754 0001929  92.7145 267.4208 13.18685786182455
ONEWEB-0409             
1 50488U 21132V   25236.61166365 -.00000368  00000+0 -10742-2 0  9990
2 50488  87.8781  80.1336 0001749  95.5525 264.5802 13.11420108176719
ONEWEB-0412             
1 50489U 21132W   25236.50319901 -.00000080  00000+0 -23671-3 0  9992
2 50489  87.9151  34.3756 0002020  85.8807 274.2556 13.18685391182554
ONEWEB-0413             
1 50490U 21132X   25236.50814403 -.00000011  00000+0 -59787-4 0  9993
2 50490  87.9155  34.3905 0001892  83.1260 277.0087 13.18684462182497
